[{"OBJECT_NAME":"SITRO-AIS 28","OBJECT_ID":"2024-039U","EPOCH":"2026-03-06T20:53:12.040800","MEAN_MOTION":14.92842063,"ECCENTRICITY":0.0144979,"INCLINATION":95.3941,"RA_OF_ASC_NODE":164.9983,"ARG_OF_PERICENTER":325.4122,"MEAN_ANOMALY":33.7735,"EPHEMERIS_TYPE":0,"CLASSIFICATION_TYPE":"U","NORAD_CAT_ID":59071,"ELEMENT_SET_NO":999,"REV_AT_EPOCH":10947,"BSTAR":0.00042675,"MEAN_MOTION_DOT":5.391e-5,"MEAN_MOTION_DDOT":0},{"OBJECT_NAME":"GRBBETA","OBJECT_ID":"2024-128C","EPOCH":"2026-03-06T09:17:03.113376","MEAN_MOTION":15.05742894,"ECCENTRICITY":0.00517586,"INCLINATION":61.9898,"RA_OF_ASC_NODE":216.7094,"ARG_OF_PERICENTER":113.4363,"MEAN_ANOMALY":247.2183,"EPHEMERIS_TYPE":0,"CLASSIFICATION_TYPE":"U","NORAD_CAT_ID":60237,"ELEMENT_SET_NO":999,"REV_AT_EPOCH":9078,"BSTAR":0.00050136723,"MEAN_MOTION_DOT":7.303e-5,"MEAN_MOTION_DDOT":0},{"OBJECT_NAME":"OOV-CUBE (TUBSAT-30)","OBJECT_ID":"2024-128F","EPOCH":"2026-03-06T20:00:50.211072","MEAN_MOTION":15.02225111,"ECCENTRICITY":0.005471,"INCLINATION":61.9944,"RA_OF_ASC_NODE":222.3349,"ARG_OF_PERICENTER":111.7529,"MEAN_ANOMALY":248.9397,"EPHEMERIS_TYPE":0,"CLASSIFICATION_TYPE":"U","NORAD_CAT_ID":60240,"ELEMENT_SET_NO":999,"REV_AT_EPOCH":9073,"BSTAR":0.00038847,"MEAN_MOTION_DOT":5.102e-5,"MEAN_MOTION_DDOT":0},{"OBJECT_NAME":"ROBUSTA-3A (MEDITERRANEE)","OBJECT_ID":"2024-128J","EPOCH":"2026-03-06T19:36:41.981184","MEAN_MOTION":15.09996172,"ECCENTRICITY":0.0052251,"INCLINATION":61.9868,"RA_OF_ASC_NODE":209.8182,"ARG_OF_PERICENTER":107.7596,"MEAN_ANOMALY":252.921,"EPHEMERIS_TYPE":0,"CLASSIFICATION_TYPE":"U","NORAD_CAT_ID":60243,"ELEMENT_SET_NO":999,"REV_AT_EPOCH":9095,"BSTAR":0.00082887,"MEAN_MOTION_DOT":0.00013782,"MEAN_MOTION_DDOT":0},{"OBJECT_NAME":"LASARSAT","OBJECT_ID":"2024-247Q","EPOCH":"2026-03-06T10:36:37.382112","MEAN_MOTION":15.39917107,"ECCENTRICITY":0.00024732,"INCLINATION":44.9751,"RA_OF_ASC_NODE":116.8276,"ARG_OF_PERICENTER":11.3421,"MEAN_ANOMALY":348.7522,"EPHEMERIS_TYPE":0,"CLASSIFICATION_TYPE":"U","NORAD_CAT_ID":62391,"ELEMENT_SET_NO":999,"REV_AT_EPOCH":6744,"BSTAR":0.00080301568,"MEAN_MOTION_DOT":0.00032438,"MEAN_MOTION_DDOT":0},{"OBJECT_NAME":"CROCUBE","OBJECT_ID":"2024-247T","EPOCH":"2026-03-06T03:36:11.847168","MEAN_MOTION":15.41011543,"ECCENTRICITY":0.00026664,"INCLINATION":44.9725,"RA_OF_ASC_NODE":117.1069,"ARG_OF_PERICENTER":351.2743,"MEAN_ANOMALY":8.8098,"EPHEMERIS_TYPE":0,"CLASSIFICATION_TYPE":"U","NORAD_CAT_ID":62394,"ELEMENT_SET_NO":999,"REV_AT_EPOCH":6741,"BSTAR":0.0008185498,"MEAN_MOTION_DOT":0.0003431,"MEAN_MOTION_DDOT":0}]
