SITRO-AIS 28            
1 59071U 24039U   26065.87027825  .00005391  00000+0  42675-3 0  9992
2 59071  95.3941 164.9983 0144979 325.4122  33.7735 14.92842063109476
GRBBETA                 
1 60237U 24128C   26065.38684159  .00007303  00000+0  50137-3 0  9999
2 60237  61.9898 216.7094 0051758 113.4363 247.2183 15.05742894 90783
OOV-CUBE (TUBSAT-30)    
1 60240U 24128F   26065.83391448  .00005102  00000+0  38847-3 0  9998
2 60240  61.9944 222.3349 0054710 111.7529 248.9397 15.02225111 90736
ROBUSTA-3A (MEDITERRAN*)
1 60243U 24128J   26065.81715256  .00013782  00000+0  82887-3 0  9992
2 60243  61.9868 209.8182 0052251 107.7596 252.9210 15.09996172 90958
LASARSAT                
1 62391U 24247Q   26065.44209933  .00032438  00000+0  80302-3 0  9998
2 62391  44.9751 116.8276 0002473  11.3421 348.7522 15.39917107 67447
CROCUBE                 
1 62394U 24247T   26065.15013712  .00034310  00000+0  81855-3 0  9992
2 62394  44.9725 117.1069 0002666 351.2743   8.8098 15.41011543 67413
